[
    {
        "latitude": "1.286920",
        "longitude": "103.854570",
        "place_name": "Merlion",
        "place_detail": "10 Bayfront Avenue",
        "place_desc": "The Merlion is the official mascot of Singapore. It is depicted as a mythical creature with the head of a lion and the body of a fish."
    },
    {
        "latitude": "1.287466",
        "longitude": "103.851424",
        "place_name": "Asian Civilisations Museum",
        "place_detail": "Asian Civilisations Museum",
        "place_desc": "Asian Civilisations Museum"
    },
    {
        "latitude": "1.290555",
        "longitude": "103.846188",
        "place_name": "Clarke Quay",
        "place_detail": "Clarke Quay",
        "place_desc": "Clarke Quay"
    },
    {
        "latitude": "1.295526",
        "longitude": "103.845331",
        "place_name": "Fort Canning Park",
        "place_detail": "Fort Canning Park",
        "place_desc": "Fort Canning Park"
    },
    {
        "latitude": "1.302279",
        "longitude": "103.837399",
        "place_name": "Orchard Road",
        "place_detail": "Orchard Road",
        "place_desc": "Orchard Road"
    },
    {
        "latitude": "1.289332",
        "longitude": "103.863152",
        "place_name": "Singapore Flyer",
        "place_detail": "Singapore Flyer",
        "place_desc": "Singapore Flyer"
    },
    {
        "latitude": "1.283099",
        "longitude": "103.860295",
        "place_name": "Marina Bay Sands",
        "place_detail": "Marina Bay Sands",
        "place_desc": "Marina Bay Sandsr"
    },
    {
        "latitude": "1.281790",
        "longitude": "103.863954",
        "place_name": "Gardens By The Bay",
        "place_detail": "Gardens By The Bay",
        "place_desc": "Gardens By The Bay"
    },
    {
        "latitude": "1.284193",
        "longitude": "103.843362",
        "place_name": "Chinatown",
        "place_detail": "Chinatown",
        "place_desc": "Chinatown"
    }
]